*******************************************************************************
Ephemeris / WWW_USER Mon Mar 24 08:18:43 2025 Pasadena, USA      / Horizons    
*******************************************************************************
Target body name: (2018 UG3)                      {source: JPL#15}
Center body name: Earth (399)                     {source: DE441}
Center-site name: Mauna Kea
*******************************************************************************
Start time      : A.D. 2018-Oct-04 04:17:00.0000 UT      
Stop  time      : A.D. 2018-Oct-04 16:04:00.0000 UT      
Step-size       : 1 minutes
*******************************************************************************
Target pole/equ : undefined
Target radii    : undefined                                                    
Center geodetic : 204.5278, 19.8260847, 4.21024   {E-lon(deg),Lat(deg),Alt(km)}
Center cylindric: 204.5278, 6006.35451, 2151.0229 {E-lon(deg),Dxy(km),Dz(km)}
Center pole/equ : ITRF93                          {East-longitude positive}
Center radii    : 6378.137, 6378.137, 6356.752 km {Equator_a, b, pole_c}       
Target primary  : Sun
Vis. interferer : MOON (R_eq= 1737.400) km        {source: DE441}
Rel. light bend : Sun                             {source: DE441}
Rel. lght bnd GM: 1.3271E+11 km^3/s^2                                          
Small-body perts: Yes                             {source: SB441-N16}
Atmos refraction: NO (AIRLESS)
RA format       : HMS
Time format     : CAL 
Calendar mode   : Mixed Julian/Gregorian
RTS-only print  : NO       
EOP file        : eop.250321.p250617                                           
EOP coverage    : DATA-BASED 1962-JAN-20 TO 2025-MAR-21. PREDICTS-> 2025-JUN-16
Units conversion: 1 au= 149597870.700 km, c= 299792.458 km/s, 1 day= 86400.0 s 
Table cut-offs 1: Elevation (-90.0deg=NO ),Airmass (>38.000=NO), Daylight (YES)
Table cut-offs 2: Solar elongation (  0.0,180.0=NO ),Local Hour Angle( 0.0=NO )
Table cut-offs 3: RA/DEC angular rate (     0.0=NO )                           
*******************************************************************************
Initial IAU76/J2000 heliocentric ecliptic osculating elements (au, days, deg.):
  EPOCH=  2458429.5 ! 2018-Nov-07.00 (TDB)         Residual RMS= .46194        
   EC= .4227384440318329   QR= .9585039390071354   TP= 2458393.2526467689      
   OM= 47.27406359171053   W=  314.2704472892426   IN= 6.159551265235018       
  Equivalent ICRF heliocentric cartesian coordinates (au, au/d):
   X= 7.430529944075828E-01  Y= 6.714692173902916E-01  Z= 2.851295671149762E-01
  VX=-1.040372162305418E-02 VY= 1.447630012002514E-02 VZ= 8.505235531163944E-03
Asteroid physical parameters (km, seconds, rotational period in hours):        
   GM= n.a.                RAD= n.a.               ROTPER= n.a.                
   H= 24.5                 G= .150                 B-V= n.a.                   
                           ALBEDO= n.a.            STYP= n.a.                  
*******************************************************************************
 Date__(UT)__HR:MN     R.A._________(ICRF)_________DEC
******************************************************
$$SOE
 2018-Oct-04 04:17 C   16 25 16.620575 -54 28 59.05120
 2018-Oct-04 04:18 C   16 25 16.693079 -54 29 00.21983
 2018-Oct-04 04:19 C   16 25 16.765666 -54 29 01.38769
 2018-Oct-04 04:20 C   16 25 16.838336 -54 29 02.55479
 2018-Oct-04 04:21 C   16 25 16.911089 -54 29 03.72112
 2018-Oct-04 04:22 C   16 25 16.983927 -54 29 04.88670
 2018-Oct-04 04:23 C   16 25 17.056850 -54 29 06.05151
 2018-Oct-04 04:24 C   16 25 17.129857 -54 29 07.21557
 2018-Oct-04 04:25 C   16 25 17.202951 -54 29 08.37887
 2018-Oct-04 04:26 C   16 25 17.276130 -54 29 09.54142
 2018-Oct-04 04:27 C   16 25 17.349396 -54 29 10.70322
 2018-Oct-04 04:28 C   16 25 17.422750 -54 29 11.86428
 2018-Oct-04 04:29 C   16 25 17.496191 -54 29 13.02459
 2018-Oct-04 04:30 C   16 25 17.569720 -54 29 14.18416
 2018-Oct-04 04:31 N   16 25 17.643338 -54 29 15.34300
 2018-Oct-04 04:32 N   16 25 17.717045 -54 29 16.50110
 2018-Oct-04 04:33 N   16 25 17.790841 -54 29 17.65846
 2018-Oct-04 04:34 N   16 25 17.864728 -54 29 18.81510
 2018-Oct-04 04:35 N   16 25 17.938705 -54 29 19.97100
 2018-Oct-04 04:36 N   16 25 18.012774 -54 29 21.12618
 2018-Oct-04 04:37 N   16 25 18.086933 -54 29 22.28064
 2018-Oct-04 04:38 N   16 25 18.161185 -54 29 23.43438
 2018-Oct-04 04:39 N   16 25 18.235530 -54 29 24.58741
 2018-Oct-04 04:40 N   16 25 18.309967 -54 29 25.73971
 2018-Oct-04 04:41 N   16 25 18.384498 -54 29 26.89131
 2018-Oct-04 04:42 N   16 25 18.459122 -54 29 28.04220
 2018-Oct-04 04:43 N   16 25 18.533842 -54 29 29.19238
 2018-Oct-04 04:44 N   16 25 18.608655 -54 29 30.34186
 2018-Oct-04 04:45 N   16 25 18.683565 -54 29 31.49064
 2018-Oct-04 04:46 N   16 25 18.758570 -54 29 32.63873
 2018-Oct-04 04:47 N   16 25 18.833671 -54 29 33.78611
 2018-Oct-04 04:48 N   16 25 18.908869 -54 29 34.93281
 2018-Oct-04 04:49 N   16 25 18.984164 -54 29 36.07882
 2018-Oct-04 04:50 N   16 25 19.059557 -54 29 37.22414
 2018-Oct-04 04:51 N   16 25 19.135047 -54 29 38.36878
 2018-Oct-04 04:52 N   16 25 19.210637 -54 29 39.51274
 2018-Oct-04 04:53 N   16 25 19.286325 -54 29 40.65602
 2018-Oct-04 04:54 N   16 25 19.362112 -54 29 41.79863
 2018-Oct-04 04:55 N   16 25 19.438000 -54 29 42.94056
 2018-Oct-04 04:56 A   16 25 19.513988 -54 29 44.08183
 2018-Oct-04 04:57 A   16 25 19.590076 -54 29 45.22243
 2018-Oct-04 04:58 A   16 25 19.666266 -54 29 46.36238
 2018-Oct-04 04:59 A   16 25 19.742558 -54 29 47.50166
 2018-Oct-04 05:00 A   16 25 19.818951 -54 29 48.64028
 2018-Oct-04 05:01 A   16 25 19.895447 -54 29 49.77826
 2018-Oct-04 05:02 A   16 25 19.972046 -54 29 50.91558
 2018-Oct-04 05:03 A   16 25 20.048748 -54 29 52.05225
 2018-Oct-04 05:04 A   16 25 20.125554 -54 29 53.18829
 2018-Oct-04 05:05 A   16 25 20.202465 -54 29 54.32368
 2018-Oct-04 05:06 A   16 25 20.279480 -54 29 55.45843
 2018-Oct-04 05:07 A   16 25 20.356600 -54 29 56.59255
 2018-Oct-04 05:08 A   16 25 20.433826 -54 29 57.72604
 2018-Oct-04 05:09 A   16 25 20.511157 -54 29 58.85890
 2018-Oct-04 05:10 A   16 25 20.588595 -54 29 59.99113
 2018-Oct-04 05:11 A   16 25 20.666140 -54 30 01.12275
 2018-Oct-04 05:12 A   16 25 20.743792 -54 30 02.25374
 2018-Oct-04 05:13 A   16 25 20.821551 -54 30 03.38412
 2018-Oct-04 05:14 A   16 25 20.899419 -54 30 04.51388
 2018-Oct-04 05:15 A   16 25 20.977395 -54 30 05.64304
 2018-Oct-04 05:16 A   16 25 21.055479 -54 30 06.77159
 2018-Oct-04 05:17 A   16 25 21.133673 -54 30 07.89954
 2018-Oct-04 05:18 A   16 25 21.211977 -54 30 09.02689
 2018-Oct-04 05:19 A   16 25 21.290391 -54 30 10.15365
 2018-Oct-04 05:20 A   16 25 21.368915 -54 30 11.27981
 2018-Oct-04 05:21 A   16 25 21.447550 -54 30 12.40538
 2018-Oct-04 05:22     16 25 21.526296 -54 30 13.53037
 2018-Oct-04 05:23     16 25 21.605154 -54 30 14.65477
 2018-Oct-04 05:24     16 25 21.684124 -54 30 15.77859
 2018-Oct-04 05:25     16 25 21.763206 -54 30 16.90184
 2018-Oct-04 05:26     16 25 21.842401 -54 30 18.02452
 2018-Oct-04 05:27     16 25 21.921709 -54 30 19.14662
 2018-Oct-04 05:28     16 25 22.001131 -54 30 20.26816
 2018-Oct-04 05:29     16 25 22.080667 -54 30 21.38914
 2018-Oct-04 05:30     16 25 22.160317 -54 30 22.50956
 2018-Oct-04 05:31     16 25 22.240082 -54 30 23.62942
 2018-Oct-04 05:32     16 25 22.319962 -54 30 24.74873
 2018-Oct-04 05:33     16 25 22.399957 -54 30 25.86750
 2018-Oct-04 05:34     16 25 22.480068 -54 30 26.98571
 2018-Oct-04 05:35     16 25 22.560296 -54 30 28.10339
 2018-Oct-04 05:36     16 25 22.640640 -54 30 29.22053
 2018-Oct-04 05:37     16 25 22.721100 -54 30 30.33713
 2018-Oct-04 05:38     16 25 22.801679 -54 30 31.45320
 2018-Oct-04 05:39     16 25 22.882374 -54 30 32.56874
 2018-Oct-04 05:40     16 25 22.963188 -54 30 33.68376
 2018-Oct-04 05:41     16 25 23.044120 -54 30 34.79826
 2018-Oct-04 05:42     16 25 23.125171 -54 30 35.91224
 2018-Oct-04 05:43     16 25 23.206341 -54 30 37.02571
 2018-Oct-04 05:44     16 25 23.287631 -54 30 38.13867
 2018-Oct-04 05:45     16 25 23.369040 -54 30 39.25112
 2018-Oct-04 05:46     16 25 23.450569 -54 30 40.36306
 2018-Oct-04 05:47     16 25 23.532219 -54 30 41.47451
 2018-Oct-04 05:48     16 25 23.613989 -54 30 42.58547
 2018-Oct-04 05:49     16 25 23.695881 -54 30 43.69593
 2018-Oct-04 05:50     16 25 23.777894 -54 30 44.80590
 2018-Oct-04 05:51     16 25 23.860029 -54 30 45.91539
 2018-Oct-04 05:52     16 25 23.942286 -54 30 47.02440
 2018-Oct-04 05:53     16 25 24.024665 -54 30 48.13293
 2018-Oct-04 05:54     16 25 24.107167 -54 30 49.24098
 2018-Oct-04 05:55     16 25 24.189793 -54 30 50.34857
 2018-Oct-04 05:56     16 25 24.272541 -54 30 51.45569
 2018-Oct-04 05:57     16 25 24.355414 -54 30 52.56235
 2018-Oct-04 05:58     16 25 24.438411 -54 30 53.66855
 2018-Oct-04 05:59     16 25 24.521532 -54 30 54.77429
 2018-Oct-04 06:00     16 25 24.604777 -54 30 55.87958
 2018-Oct-04 06:01     16 25 24.688148 -54 30 56.98443
 2018-Oct-04 06:02     16 25 24.771644 -54 30 58.08883
 2018-Oct-04 06:03     16 25 24.855266 -54 30 59.19279
 2018-Oct-04 06:04     16 25 24.939013 -54 31 00.29631
 2018-Oct-04 06:05     16 25 25.022887 -54 31 01.39940
 2018-Oct-04 06:06     16 25 25.106888 -54 31 02.50207
 2018-Oct-04 06:07     16 25 25.191015 -54 31 03.60430
 2018-Oct-04 06:08     16 25 25.275269 -54 31 04.70612
 2018-Oct-04 06:09     16 25 25.359651 -54 31 05.80752
 2018-Oct-04 06:10     16 25 25.444161 -54 31 06.90851
 2018-Oct-04 06:11     16 25 25.528798 -54 31 08.00908
 2018-Oct-04 06:12     16 25 25.613564 -54 31 09.10925
 2018-Oct-04 06:13     16 25 25.698458 -54 31 10.20902
 2018-Oct-04 06:14     16 25 25.783481 -54 31 11.30839
 2018-Oct-04 06:15     16 25 25.868634 -54 31 12.40737
 2018-Oct-04 06:16     16 25 25.953915 -54 31 13.50595
 2018-Oct-04 06:17     16 25 26.039327 -54 31 14.60415
 2018-Oct-04 06:18  s  16 25 26.124868 -54 31 15.70197
 2018-Oct-04 06:19     16 25 26.210540 -54 31 16.79941
